OBJECT_NAME,OBJECT_ID,EPOCH,MEAN_MOTION,ECCENTRICITY,INCLINATION,RA_OF_ASC_NODE,ARG_OF_PERICENTER,MEAN_ANOMALY,EPHEMERIS_TYPE,CLASSIFICATION_TYPE,NORAD_CAT_ID,ELEMENT_SET_NO,REV_AT_EPOCH,BSTAR,MEAN_MOTION_DOT,MEAN_MOTION_DDOT
QIANFAN-182,2026-124T,2026-06-13T05:33:40.695264,14.25276588,.0002478,88.9988,2.4869,179.1552,180.9646,0,U,69399,999,125,.37547645E-4,.103E-5,0
CZ-6A R/B,2026-124U,2026-06-13T14:18:39.136320,14.57302307,.01002001,89.0257,2.3859,74.0281,287.1941,0,U,69400,999,133,.62093729E-4,.321E-5,0
DTC TEST OBJECT A,2026-128A,2026-06-13T15:13:43.670208,15.55672623,.00082003,54.9941,321.4396,275.4315,84.5786,0,U,69472,999,67,.37022594E-3,.25495E-3,0
DTC TEST OBJECT B,2026-128B,2026-06-13T15:12:46.530432,15.56090213,.00082533,55.0033,321.4374,276.2591,83.7505,0,U,69473,999,66,.37264641E-3,.26071E-3,0
2026-131A,2026-131A,2026-06-13T14:48:57.510720,14.99041165,.00121578,97.6918,228.3396,284.6572,75.3303,0,U,69502,999,24,.59490599E-4,.663E-5,0
2026-131B,2026-131B,2026-06-13T11:36:35.427168,14.99132844,.00121081,97.6950,228.2085,287.4366,72.5533,0,U,69503,999,22,.63110584E-4,.709E-5,0
2026-131C,2026-131C,2026-06-13T09:59:39.628896,14.99753351,.00136357,97.6892,228.1405,299.3208,60.6653,0,U,69504,999,21,.13326849E-3,.1589E-4,0
2026-131D,2026-131D,2026-06-13T09:58:23.387808,15.00977591,.00110344,97.6871,228.1350,315.3023,44.7311,0,U,69505,999,20,.12291978E-3,.1509E-4,0
2026-131E,2026-131E,2026-06-13T09:58:13.362816,15.00908353,.00113267,97.6848,228.1411,323.9735,36.0724,0,U,69506,999,21,.13578279E-3,.1671E-4,0
2026-131F,2026-131F,2026-06-13T09:58:10.881408,15.01040982,.00109152,97.6869,228.1362,319.8335,40.2082,0,U,69507,999,20,.25250362E-3,.317E-4,0
ZHUQUE-2E R/B,2026-128C,2026-06-13T14:46:18.412032,15.62632472,.00659422,54.5308,320.7565,334.3992,25.3780,0,U,69537,999,66,.43159648E-3,.43535E-3,0
