{"updated_at":"2026-06-13T18:15:51.214023Z","count":200,"data":[{"NORAD_CAT_ID":"69502","OBJECT_NAME":"OBJECT A","OBJECT_ID":"2026-132A","EPOCH":"2026-06-13T14:48:57.510720","TLE_LINE1":"1 69502U 26132A   26164.61733230  .00000663  00000-0  59491-4 0  9997","TLE_LINE2":"2 69502  97.6918 228.3396 0012158 284.6572  75.3303 14.99041165   245"},{"NORAD_CAT_ID":"69503","OBJECT_NAME":"OBJECT B","OBJECT_ID":"2026-132B","EPOCH":"2026-06-13T11:36:35.427168","TLE_LINE1":"1 69503U 26132B   26164.48374337  .00000709  00000-0  63111-4 0  9997","TLE_LINE2":"2 69503  97.6950 228.2085 0012108 287.4366  72.5533 14.99132844   220"},{"NORAD_CAT_ID":"69504","OBJECT_NAME":"OBJECT C","OBJECT_ID":"2026-132C","EPOCH":"2026-06-13T09:59:39.628896","TLE_LINE1":"1 69504U 26132C   26164.41643089  .00001589  00000-0  13327-3 0  9994","TLE_LINE2":"2 69504  97.6892 228.1405 0013636 299.3208  60.6653 14.99753351   217"},{"NORAD_CAT_ID":"69505","OBJECT_NAME":"OBJECT D","OBJECT_ID":"2026-132D","EPOCH":"2026-06-13T09:58:23.387808","TLE_LINE1":"1 69505U 26132D   26164.41554847  .00001509  00000-0  12292-3 0  9990","TLE_LINE2":"2 69505  97.6871 228.1350 0011034 315.3023  44.7311 15.00977591   208"},{"NORAD_CAT_ID":"69506","OBJECT_NAME":"OBJECT E","OBJECT_ID":"2026-132E","EPOCH":"2026-06-13T09:58:13.362816","TLE_LINE1":"1 69506U 26132E   26164.41543244  .00001671  00000-0  13578-3 0  9998","TLE_LINE2":"2 69506  97.6848 228.1411 0011327 323.9735  36.0724 15.00908353   214"},{"NORAD_CAT_ID":"69507","OBJECT_NAME":"OBJECT F","OBJECT_ID":"2026-132F","EPOCH":"2026-06-13T09:58:10.881408","TLE_LINE1":"1 69507U 26132F   26164.41540372  .00003170  00000-0  25250-3 0  9994","TLE_LINE2":"2 69507  97.6869 228.1362 0010915 319.8335  40.2082 15.01040982   204"},{"NORAD_CAT_ID":"69472","OBJECT_NAME":"OBJECT A","OBJECT_ID":"2026-128A","EPOCH":"2026-06-13T15:13:43.670208","TLE_LINE1":"1 69472U 26128A   26164.63453322  .00025495  00000-0  37023-3 0  9997","TLE_LINE2":"2 69472  54.9941 321.4396 0008200 275.4315  84.5786 15.55672623   670"},{"NORAD_CAT_ID":"69473","OBJECT_NAME":"OBJECT B","OBJECT_ID":"2026-128B","EPOCH":"2026-06-13T15:12:46.530432","TLE_LINE1":"1 69473U 26128B   26164.63387188  .00026071  00000-0  37265-3 0  9993","TLE_LINE2":"2 69473  55.0033 321.4374 0008253 276.2591  83.7505 15.56090213   663"},{"NORAD_CAT_ID":"69537","OBJECT_NAME":"ZQ-2E R/B","OBJECT_ID":"2026-128C","EPOCH":"2026-06-13T14:46:18.412032","TLE_LINE1":"1 69537U 26128C   26164.61549088  .00043535  00000-0  43160-3 0  9996","TLE_LINE2":"2 69537  54.5308 320.7565 0065942 334.3992  25.3780 15.62632472   669"},{"NORAD_CAT_ID":"69399","OBJECT_NAME":"QIANFAN-182","OBJECT_ID":"2026-124T","EPOCH":"2026-06-13T05:33:40.695264","TLE_LINE1":"1 69399U 26124T   26164.23172101  .00000103  00000-0  37548-4 0  9992","TLE_LINE2":"2 69399  88.9988   2.4869 0002478 179.1552 180.9646 14.25276588  1258"},{"NORAD_CAT_ID":"69400","OBJECT_NAME":"CZ-6A R/B","OBJECT_ID":"2026-124U","EPOCH":"2026-06-13T14:18:39.136320","TLE_LINE1":"1 69400U 26124U   26164.59628630  .00000321  00000-0  62094-4 0  9993","TLE_LINE2":"2 69400  89.0257   2.3859 0100200  74.0281 287.1941 14.57302307  1335"}]}